CCSDS_OEM_VERS = 2.0  
CREATION_DATE  = 2023-05-23T14:48:49
ORIGINATOR     = ESOC/OPS-GFA                            
 
 



META_START
OBJECT_NAME          = LISA                                    
OBJECT_ID            = -1000                                   
CENTER_NAME          = SUN                     
REF_FRAME            = EME2000 
TIME_SYSTEM          = TDB
START_TIME           = 2036-02-12T12:00:00.00000000            
STOP_TIME            = 2046-11-13T01:04:47.99999985            
INTERPOLATION        = HERMITE                                 
INTERPOLATION_DEGREE = 7                                       
META_STOP

2039-06-18T20:53:03.38064628    42256997.522985  -132538788.035941   -56416231.648912  28.5012025   7.5251212   3.4386676    -0.000001657922     0.000005199584     0.000002213243
2039-06-22T05:10:50.31912029    50422016.027421  -130147569.437265   -55330340.853843  27.9756440   9.0146338   4.0723044    -0.000001977286     0.000005103307     0.000002169594
2039-06-25T13:28:37.25759431    58421859.662153  -127330034.303629   -54063208.015268  27.3587115  10.4739334   4.6923107    -0.000002289956     0.000004990606     0.000002118964
2039-06-28T21:46:24.19606832    66230408.881533  -124095597.596197   -52619062.675768  26.6524817  11.8983264   5.2966933    -0.000002594958     0.000004861864     0.000002061526
2039-07-02T06:04:11.13454233    73822183.998399  -120455013.521010   -51002702.814695  25.8593090  13.2832376   5.8835114    -0.000002891342     0.000004717514     0.000001997473
2039-07-05T14:36:19.46511554    81193943.961241  -116407742.009085   -49213921.949361  24.9790802  14.6281489   6.4525425    -0.000003179028     0.000004557535     0.000001926794
2039-07-08T23:08:27.79568874    88298553.197200  -111977474.079231   -47263221.227730  24.0169423  15.9245343   7.0001757    -0.000003456224     0.000004382860     0.000001849905
2039-07-12T07:40:36.12626195    95112717.459850  -107178888.934112   -45157062.212821  22.9760629  17.1682139   7.5246460    -0.000003722067     0.000004194056     0.000001767054
2039-07-15T16:12:44.45683516   101614095.660727  -102027852.561129   -42902407.249931  21.8598545  18.3551790   8.0242633    -0.000003975728     0.000003991732     0.000001678508
2039-07-19T01:02:24.94533847   107803119.173490   -96520867.837366   -40497755.980596  20.6675273  19.4855756   8.4990840    -0.000004217268     0.000003775733     0.000001584200
2039-07-22T09:52:05.43384162   113635165.540670   -90694279.681371   -37959007.378293  19.4069100  20.5513176   8.9457063    -0.000004444984     0.000003547460     0.000001484743
2039-07-25T18:41:45.92234493   119090959.603385   -84567410.911603   -35294580.244360  18.0821303  21.5489390   9.3626778    -0.000004658160     0.000003307642     0.000001380455
2039-07-29T03:31:26.41084809   124152455.890800   -78160561.267660   -32513302.214281  16.6975180  22.4751904   9.7486406    -0.000004856124     0.000003057042     0.000001271667
2039-08-01T12:24:36.30467413   128806092.664495   -71490058.645349   -29622266.445886  15.2565369  23.3276347  10.1025778    -0.000005038374     0.000002796262     0.000001158641
2039-08-04T21:17:46.19850016   133032633.978588   -64582521.409922   -26633014.576213  13.7648672  24.1027862  10.4230405    -0.000005204179     0.000002526306     0.000001041812
2039-08-08T06:10:56.09232605   136818025.165709   -57460833.629193   -23555450.138350  12.2273761  24.7980962  10.7089747    -0.000005353008     0.000002248026     0.000000921549
2039-08-11T15:04:05.98615209   140149649.509230   -50148584.804018   -20399767.691305  10.6490782  25.4112687  10.9594357    -0.000005484379     0.000001962303     0.000000798233
2039-08-15T00:11:45.00129667   143024221.931933   -42647449.596227   -17166709.180145   9.0302561  25.9417182  11.1741751    -0.000005598171     0.000001669159     0.000000671874
2039-08-18T09:19:24.01644142   145421409.452276   -35003977.831666   -13876357.022917   7.3808749  26.3857046  11.3516677    -0.000005693586     0.000001370367     0.000000543237
2039-08-21T18:27:03.03158601   147333076.137125   -27243649.222929   -10539680.798718   5.7063510  26.7417169  11.4913080    -0.000005770297     0.000001066879     0.000000412733
2039-08-25T03:34:42.04673060   148752679.897495   -19392344.070466    -7167809.423618   4.0121879  27.0085247  11.5926113    -0.000005828033     0.000000759663     0.000000280778
2039-08-28T12:22:57.78974614   149672613.781292   -11507883.815754    -3785553.552232   2.3107841  27.1846584  11.6550428    -0.000005866467     0.000000450940     0.000000148324
2039-08-31T21:11:13.53276168   150096260.482625    -3585277.182556     -390750.691948   0.6009883  27.2707086  11.6788467    -0.000005885711     0.000000140474     0.000000015271
2039-09-04T05:59:29.27577722   150021992.701649     4349211.255305     3005343.203789  -1.1116021  27.2663123  11.6639103    -0.000005885669    -0.000000170743    -0.000000117957
2039-09-07T14:47:45.01879261   149449813.601217    12269252.955016     6391457.226107  -2.8213701  27.1713956  11.6102446    -0.000005866305    -0.000000481716    -0.000000250933
2039-09-10T23:02:44.49159819   148390379.015683    20094667.259078     9733348.218997  -4.5110626  26.9877528  11.5187494    -0.000005827969    -0.000000789325    -0.000000382325
2039-09-14T07:17:43.96440362   146844656.938402    27854217.544103    13043336.823617  -6.1869387  26.7155372  11.3894426    -0.000005770675    -0.000001094726    -0.000000512627
2039-09-17T15:32:43.43720920   144817428.738388    35522421.116661    16310550.652968  -7.8435399  26.3555278  11.2226992    -0.000005694560    -0.000001396942    -0.000000641422
2039-09-20T23:47:42.91001463   142315045.346777    43074060.547203    19524242.841039  -9.4754556  25.9087858  11.0190149    -0.000005599819    -0.000001695000    -0.000000768295
2039-09-24T08:03:46.05513314   139344707.342176    50485881.829382    22674513.516971 -11.0776897  25.3765254  10.7789474    -0.000005486681    -0.000001987998    -0.000000892861
2039-09-27T16:19:49.20025150   135916358.734496    57731748.136999    25750249.621709 -12.6446125  24.7604553  10.5032711    -0.000005355477    -0.000002274915    -0.000001014686
2039-10-01T00:35:52.34537002   132040952.777096    64787708.853279    28741281.679961 -14.1710560  24.0624689  10.1928360    -0.000005206578    -0.000002554809    -0.000001133371
2039-10-04T08:51:55.49048838   127730919.052159    71630398.876904    31637702.122542 -15.6519678  23.2847297   9.8486068    -0.000005040415    -0.000002826755    -0.000001248521
2039-10-07T17:17:50.71385210   122990014.093461    78250396.959209    34435506.466830 -17.0853038  22.4278360   9.4708552    -0.000004857081    -0.000003090378    -0.000001359977
2039-10-11T01:43:45.93721566   117841994.482459    84611359.093319    37119317.370778 -18.4631805  21.4960033   9.0614458    -0.000004657445    -0.000003344224    -0.000001467124
2039-10-14T10:09:41.16057938   112303594.136204    90692008.693405    39680154.145244 -19.7809637  20.4921881   8.6216798    -0.000004442111    -0.000003587430    -0.000001569596
2039-10-17T18:35:36.38394294   106392862.269720    96471960.087996    42109427.517297 -21.0342015  19.4195927   8.1529617    -0.000004211735    -0.000003819163    -0.000001667042
2039-10-21T03:18:48.05303274   100106078.819385   101950736.012290    44406904.828613 -22.2227513  18.2774696   7.6549728    -0.000003966127    -0.000004039385    -0.000001759444
2039-10-24T12:01:59.72212254    93484477.738574   107088504.437334    46555848.780598 -23.3379248  17.0732423   7.1309572    -0.000003706855    -0.000004246470    -0.000001846118
2039-10-27T20:45:11.39121234    86549947.256111   111867783.960169    48548942.647544 -24.3758695  15.8108360   6.5826245    -0.000003434740    -0.000004439683    -0.000001926756
2039-10-31T05:28:23.06030199    79325459.423325   116272263.227452    50379378.849849 -25.3329787  14.4943836   6.0117716    -0.000003150653    -0.000004618330    -0.000002001067
2039-11-03T14:39:45.03296002    71790697.251700   120309045.512560    52050043.359504 -26.2107304  13.1201302   5.4167797    -0.000002853761    -0.000004782666    -0.000002069154
2039-11-06T23:51:07.00561790    64012214.521248   123937364.441279    53543991.897920 -27.0001895  11.7001691   4.8028939    -0.000002546659    -0.000004930996    -0.000002130311
2039-11-10T09:02:28.97827593    56016239.369035   127144552.831856    54856001.732492 -27.6985196  10.2392618   4.1721743    -0.000002230365    -0.000005062759    -0.000002184307
2039-11-13T18:13:50.95093381    47829784.836676   129919357.242836    55981461.319164 -28.3031880   8.7423262   3.5267453    -0.000001905938    -0.000005177448    -0.000002230930
2039-11-17T03:17:31.27719770    39493859.381110   132248652.583386    56915064.562832 -28.8112488   7.2168550   2.8698370    -0.000001574996    -0.000005274472    -0.000002269942
2039-11-20T12:21:11.60346159    31023850.555041   134128905.232344    57655416.067642 -29.2218455   5.6656673   2.2026628    -0.000001238153    -0.000005353636    -0.000002301264
2039-11-23T21:24:51.92972548    22448435.390618   135553376.454467    58199849.665566 -29.5334227   4.0940247   1.5274868    -0.000000896555    -0.000005414611    -0.000002324763
2039-11-27T06:28:32.25598936    13796695.921539   136516874.873761    58546364.681684 -29.7447630   2.5072754   0.8466080    -0.000000551374    -0.000005457131    -0.000002340333
2039-11-30T15:12:10.71999550     5133900.388715   137014682.828764    58693439.057770 -29.8547480   0.9174237   0.1651737    -0.000000205232    -0.000005480932    -0.000002347884
2039-12-03T23:55:49.18400179    -3546220.532021   137049707.278848    58642269.456030 -29.8639370  -0.6766391  -0.5172950     0.000000142093    -0.000005486094    -0.000002347446
2039-12-07T08:39:27.64800792   -12214340.723603   136621513.183150    58392893.191584 -29.7721602  -2.2694844  -1.1984728     0.000000489400    -0.000005472548    -0.000002339000
